H1 CPF  1  DGF 2022 02 06 10  5371 larets     NONE      
H2   304206 5557    27944 2022 02 06 00 00 00 2022 02 13 00 00 00    30 1 1  0 0 0
H5  0.0650
H9
10 0 59618  21600.000000  0       1524494.249       -634952.198      -6867474.617
10 0 59618  21630.000000  0       1629240.826       -831575.692      -6822060.969
10 0 59618  21660.000000  0       1731485.208      -1027813.475      -6769717.386
10 0 59618  21690.000000  0       1831126.117      -1223456.322      -6710495.784
10 0 59618  21720.000000  0       1928065.760      -1418295.090      -6644455.015
10 0 59618  21750.000000  0       2022209.926      -1612120.933      -6571660.816
10 0 59618  21780.000000  0       2113468.079      -1804725.525      -6492185.754
10 0 59618  21810.000000  0       2201753.443      -1995901.280      -6406109.160
10 0 59618  21840.000000  0       2286983.091      -2185441.576      -6313517.069
10 0 59618  21870.000000  0       2369078.021      -2373140.978      -6214502.136
10 0 59618  21900.000000  0       2447963.237      -2558795.467      -6109163.566
10 0 59618  21930.000000  0       2523567.821      -2742202.661      -5997607.012
10 0 59618  21960.000000  0       2595825.001      -2923162.045      -5879944.488
10 0 59618  21990.000000  0       2664672.213      -3101475.192      -5756294.256
10 0 59618  22020.000000  0       2730051.160      -3276945.984      -5626780.716
10 0 59618  22050.000000  0       2791907.860      -3449380.834      -5491534.285
10 0 59618  22080.000000  0       2850192.696      -3618588.902      -5350691.273
10 0 59618  22110.000000  0       2904860.452      -3784382.301      -5204393.752
10 0 59618  22140.000000  0       2955870.355      -3946576.320      -5052789.421
10 0 59618  22170.000000  0       3003186.104      -4104989.627      -4896031.465
10 0 59618  22200.000000  0       3046775.892      -4259444.476      -4734278.408
10 0 59618  22230.000000  0       3086612.436      -4409766.920      -4567693.960
10 0 59618  22260.000000  0       3122672.983      -4555787.004      -4396446.860
10 0 59618  22290.000000  0       3154939.330      -4697338.971      -4220710.714
10 0 59618  22320.000000  0       3183397.830      -4834261.460      -4040663.822
10 0 59618  22350.000000  0       3208039.386      -4966397.698      -3856489.005
10 0 59618  22380.000000  0       3228859.453      -5093595.692      -3668373.420
10 0 59618  22410.000000  0       3245858.026      -5215708.414      -3476508.370
10 0 59618  22440.000000  0       3259039.615      -5332593.979      -3281089.110
10 0 59618  22470.000000  0       3268413.232      -5444115.819      -3082314.647
10 0 59618  22500.000000  0       3273992.359      -5550142.846      -2880387.540
10 0 59618  22530.000000  0       3275794.918      -5650549.621      -2675513.687
10 0 59618  22560.000000  0       3273843.231      -5745216.502      -2467902.121
10 0 59618  22590.000000  0       3268163.979      -5834029.805      -2257764.787
10 0 59618  22620.000000  0       3258788.150      -5916881.940      -2045316.330
10 0 59618  22650.000000  0       3245750.987      -5993671.556      -1830773.862
10 0 59618  22680.000000  0       3229091.930      -6064303.667      -1614356.740
10 0 59618  22710.000000  0       3208854.544      -6128689.783      -1396286.335
10 0 59618  22740.000000  0       3185086.455      -6186748.021      -1176785.794
10 0 59618  22770.000000  0       3157839.270      -6238403.212       -956079.804
10 0 59618  22800.000000  0       3127168.499      -6283587.007       -734394.355
10 0 59618  22830.000000  0       3093133.464      -6322237.960       -511956.496
10 0 59618  22860.000000  0       3055797.209      -6354301.613       -288994.098
10 0 59618  22890.000000  0       3015226.408      -6379730.569        -65735.614
10 0 59618  22920.000000  0       2971491.265      -6398484.566        157590.159
10 0 59618  22950.000000  0       2924665.411      -6410530.533        380754.328
10 0 59618  22980.000000  0       2874825.798      -6415842.648        603528.148
10 0 59618  23010.000000  0       2822052.587      -6414402.377        825683.264
10 0 59618  23040.000000  0       2766429.032      -6406198.511       1046991.963
10 0 59618  23070.000000  0       2708041.361      -6391227.184       1267227.415
10 0 59618  23100.000000  0       2646978.655      -6369491.892       1486163.917
10 0 59618  23130.000000  0       2583332.718      -6341003.491       1703577.133
10 0 59618  23160.000000  0       2517197.947      -6305780.197       1919244.333
10 0 59618  23190.000000  0       2448671.201      -6263847.573       2132944.623
10 0 59618  23220.000000  0       2377851.665      -6215238.509       2344459.183
10 0 59618  23250.000000  0       2304840.715      -6159993.191       2553571.495
10 0 59618  23280.000000  0       2229741.780      -6098159.062       2760067.570
10 0 59618  23310.000000  0       2152660.200      -6029790.776       2963736.175
10 0 59618  23340.000000  0       2073703.084      -5954950.147       3164369.045
10 0 59618  23370.000000  0       1992979.161      -5873706.084       3361761.108
10 0 59618  23400.000000  0       1910598.638      -5786134.523       3555710.694
10 0 59618  23430.000000  0       1826673.054      -5692318.348       3746019.749
10 0 59618  23460.000000  0       1741315.128      -5592347.297       3932494.034
10 0 59618  23490.000000  0       1654638.611      -5486317.873       4114943.323
10 0 59618  23520.000000  0       1566758.144      -5374333.239       4293181.601
10 0 59618  23550.000000  0       1477789.107      -5256503.110       4467027.250
10 0 59618  23580.000000  0       1387847.472      -5132943.638       4636303.234
10 0 59618  23610.000000  0       1297049.652      -5003777.289       4800837.284
10 0 59618  23640.000000  0       1205512.353      -4869132.714       4960462.070
10 0 59618  23670.000000  0       1113352.423      -4729144.605       5115015.373
10 0 59618  23700.000000  0       1020686.704      -4583953.550       5264340.242
10 0 59618  23730.000000  0        927631.885      -4433705.882       5408285.151
10 0 59618  23760.000000  0        834304.361      -4278553.516       5546704.148
10 0 59618  23790.000000  0        740820.087      -4118653.790       5679456.995
10 0 59618  23820.000000  0        647294.437      -3954169.292       5806409.301
10 0 59618  23850.000000  0        553842.062      -3785267.685       5927432.655
10 0 59618  23880.000000  0        460576.755      -3612121.535       6042404.743
10 0 59618  23910.000000  0        367611.312      -3434908.119       6151209.465
10 0 59618  23940.000000  0        275057.401      -3253809.245       6253737.047
10 0 59618  23970.000000  0        183025.423      -3069011.058       6349884.138
10 0 59618  24000.000000  0         91624.393      -2880703.840       6439553.914
10 0 59618  24030.000000  0           961.806      -2689081.815       6522656.161
10 0 59618  24060.000000  0        -88856.483      -2494342.943       6599107.360
10 0 59618  24090.000000  0       -177726.380      -2296688.713       6668830.766
10 0 59618  24120.000000  0       -265545.671      -2096323.934       6731756.476
10 0 59618  24150.000000  0       -352214.137      -1893456.523       6787821.497
10 0 59618  24180.000000  0       -437633.669      -1688297.284       6836969.803
10 0 59618  24210.000000  0       -521708.373      -1481059.685       6879152.382
10 0 59618  24240.000000  0       -604344.679      -1271959.638       6914327.288
10 0 59618  24270.000000  0       -685451.438      -1061215.272       6942459.667
10 0 59618  24300.000000  0       -764940.026       -849046.703       6963521.797
10 0 59618  24330.000000  0       -842724.436       -635675.806       6977493.106
10 0 59618  24360.000000  0       -918721.374       -421325.980       6984360.187
10 0 59618  24390.000000  0       -992850.342       -206221.922       6984116.807
10 0 59618  24420.000000  0      -1065033.725          9410.615       6976763.914
10 0 59618  24450.000000  0      -1135196.870        225345.052       6962309.629
10 0 59618  24480.000000  0      -1203268.159        441354.226       6940769.238
10 0 59618  24510.000000  0      -1269179.087        657210.623       6912165.172
10 0 59618  24540.000000  0      -1332864.321        872686.618       6876526.982
10 0 59618  24570.000000  0      -1394261.770       1087554.710       6833891.314
10 0 59618  24600.000000  0      -1453312.645       1301587.764       6784301.869
10 0 59618  24630.000000  0      -1509961.511       1514559.245       6727809.359
10 0 59618  24660.000000  0      -1564156.343       1726243.462       6664471.461
10 0 59618  24690.000000  0      -1615848.566       1936415.800       6594352.752
10 0 59618  24720.000000  0      -1664993.106       2144852.961       6517524.656
10 0 59618  24750.000000  0      -1711548.420       2351333.197       6434065.367
10 0 59618  24780.000000  0      -1755476.536       2555636.549       6344059.780
10 0 59618  24810.000000  0      -1796743.083       2757545.080       6247599.401
10 0 59618  24840.000000  0      -1835317.311       2956843.107       6144782.257
10 0 59618  24870.000000  0      -1871172.113       3153317.428       6035712.807
10 0 59618  24900.000000  0      -1904284.042       3346757.552       5920501.839
10 0 59618  24930.000000  0      -1934633.319       3536955.926       5799266.366
10 0 59618  24960.000000  0      -1962203.847       3723708.161       5672129.514
10 0 59618  24990.000000  0      -1986983.210       3906813.255       5539220.400
10 0 59618  25020.000000  0      -2008962.674       4086073.814       5400674.005
10 0 59618  25050.000000  0      -2028137.178       4261296.267       5256631.045
10 0 59618  25080.000000  0      -2044505.326       4432291.076       5107237.827
10 0 59618  25110.000000  0      -2058069.369       4598872.951       4952646.108
10 0 59618  25140.000000  0      -2068835.188       4760861.049       4793012.948
10 0 59618  25170.000000  0      -2076812.265       4918079.179       4628500.548
99
